#aV2008  5 29  0  0   .00000000      96 DD+AD WGS84 FIT  NGA
## 1481 345600.00000000   900.00000000 54615  .0000000000000
+   31     2  3  4  5  6  7  8  9 10 11 12 13 14 15 16 17 18
+         19 20 21 22 23 24 25 26 27 28 29 30 31 32  0  0  0
+          0  0  0  0  0  0  0  0  0  0  0  0  0  0  0  0  0
+          0  0  0  0  0  0  0  0  0  0  0  0  0  0  0  0  0
+          0  0  0  0  0  0  0  0  0  0  0  0  0  0  0  0  0
++         0  0  0  0  0  0  0  0  0  0  0  0  0  0  0  0  0
++         0  0  0  0  0  0  0  0  0  0  0  0  0  0  0  0  0
++         0  0  0  0  0  0  0  0  0  0  0  0  0  0  0  0  0
++         0  0  0  0  0  0  0  0  0  0  0  0  0  0  0  0  0
++         0  0  0  0  0  0  0  0  0  0  0  0  0  0  0  0  0
%c cc cc ccc ccc cccc cccc cccc cccc ccccc ccccc ccccc ccccc
%c cc cc ccc ccc cccc cccc cccc cccc ccccc ccccc ccccc ccccc
%f  0.0000000  0.000000000  0.00000000000  0.000000000000000
%f  0.0000000  0.000000000  0.00000000000  0.000000000000000
%i    0    0    0    0      0      0      0      0         0
%i    0    0    0    0      0      0      0      0         0
/*      NGA, ST. LOUIS,MO.                                  
/*   EPHEMERIS COMPUTED FROM  3 DAYS OF DATA                
/* CCCCCCCCCCCCCCCCCCCCCCCCCCCCCCCCCCCCCCCCCCCCCCCCCCCCCCCCC
/* CCCCCCCCCCCCCCCCCCCCCCCCCCCCCCCCCCCCCCCCCCCCCCCCCCCCCCCCC
*  2008  5 29  2  0   .00000000                                                 
P  2 -21885.156735   9998.983114 -11000.675257    205.494209                    
V  2   7849.329301 -11880.933913 -27151.570210       .012562                    
P  3  14335.976618  -6878.538336  21001.722387    234.614241                    
V  3   9537.284834  25721.878813   2243.046464       .052019                    
P  4 -19499.146965    -23.795773 -18288.689948    -78.011964                    
V  4  15767.772771 -16752.030759 -16520.025504      -.088286                    
P  5   -325.155459  15902.802407 -21551.089694    783.439790                    
V  5 -26318.271859  -5016.291614  -3203.406688       .085485                    
P  6  16428.007127    804.964575  21049.331798    137.625662                    
V  6   6472.190672  25601.519823  -6104.499750       .079443                    
P  7     90.132450 -18387.895322  19113.065192    -32.351589                    
V  7  18640.169446 -15720.719483 -15257.962205       .083695                    
P  8 -11758.518073  -9156.172663  21933.211545   -155.039743                    
V  8  21283.845116 -18114.012629   3377.159399      -.016384                    
P  9 -12785.760010  21659.903375  -8902.344556    126.581342                    
V  9  -8950.494924   5870.422241  29376.334761       .016772                    
P 10 -22705.386265   2584.219309  13670.233212     -1.829526                    
V 10 -15994.185862  -7257.850444 -24621.802547      -.002459                    
P 11   8093.188253 -23563.283786  -8882.358481     25.220351                    
V 11  10436.627135  -6439.257844  27388.808400      -.003488                    
P 12  -6048.681413  13918.479940 -21701.341452   -358.967514                    
V 12 -26528.689648  -8213.904082   2210.191261       .002259                    
P 13  -6191.062936 -25751.406896   2021.412961    257.416791                    
V 13   1166.224435  -2972.304365 -32353.647190       .016661                    
P 14  14103.581467  15575.123594 -16210.258690   -261.609692                    
V 14   2933.297937  20497.907103  22016.599101       .042306                    
P 15  -9057.916483  16971.839127  18328.696040   -118.100744                    
V 15  -7160.897119 -22172.201549  17018.363709      -.058208                    
P 16  24870.821512    926.404544   9630.395893    123.400653                    
V 16  10810.188328   5780.686522 -28493.139205      -.014618                    
P 17 -14898.296788 -15163.612325 -15983.491926     38.834551                    
V 17  -2646.288715 -20223.081829  21437.322783      -.002294                    
P 18  13382.563561  16735.617179  16100.239200   -173.239794                    
V 18 -19557.517455  -4621.018985  20938.049917       .039346                    
P 19   9869.763362 -17078.670790  17785.390983     30.875163                    
V 19   5424.537114  21899.429141  18290.476707       .008251                    
P 20   3997.072242 -15040.837999 -21639.678024    113.341276                    
V 20  26247.016612   7329.410872   -207.383408      -.008316                    
P 21   6033.922169  15293.228897  20948.516013     62.936958                    
V 21 -20327.974444  16843.340101  -7114.370982      -.011356                    
P 22  23327.975004  11828.799277   4937.133006    211.269791                    
V 22  -6779.632903    995.938706  30541.708383       .003363                    
P 23   1414.260406 -24402.664313 -10150.034302    356.339635                    
V 23   5244.975003  11972.321982 -28486.191897       .021159                    
P 24  -8718.239868  20834.415549  14362.265419     97.511723                    
V 24 -14932.754093  10015.952163 -23598.578034       .030626                    
P 25   5396.190106 -21725.742997  14793.336463   -183.672700                    
V 25  13233.412496 -12444.132903 -23505.799767      -.263469                    
P 26 -10966.040884  12453.444144  20099.319402    262.977697                    
V 26  -6045.866882 -26038.929762  13059.107808       .077845                    
P 27  -3113.085359 -17286.638508  20557.567859    191.674536                    
V 27  17519.880137 -17337.163715 -12472.019773       .027286                    
P 28 -22543.696980 -12656.038592   7196.657310    -19.462435                    
V 28   8817.135724    533.014210  29854.866022      -.001893                    
P 29   4806.122648  26105.865129  -1175.454488    -42.851272                    
V 29  -3124.479572   -998.202990 -31658.725598       .003550                    
P 30   7745.229950  16533.556096 -19664.274374     78.603696                    
V 30 -23806.109493  -4787.829955 -13539.398793       .017114                    
P 31  19694.495908  -2071.191810 -17550.938000    -21.500009                    
V 31 -15338.081421  16706.896524 -18855.744387      -.013651                    
P 32  18435.725303  -5827.223889 -17719.896008    291.123567                    
V 32  21153.126007  10117.192577  18414.216929       .048190                    
EOF
